[{"OBJECT_NAME":"TIRSAT","OBJECT_ID":"2024-032C","EPOCH":"2026-03-09T22:53:26.104704","MEAN_MOTION":14.72202351,"ECCENTRICITY":0.00062938,"INCLINATION":98.0088,"RA_OF_ASC_NODE":128.8335,"ARG_OF_PERICENTER":103.9805,"MEAN_ANOMALY":256.2103,"EPHEMERIS_TYPE":0,"CLASSIFICATION_TYPE":"U","NORAD_CAT_ID":58989,"ELEMENT_SET_NO":999,"REV_AT_EPOCH":11048,"BSTAR":0.00030948624,"MEAN_MOTION_DOT":1.903e-5,"MEAN_MOTION_DDOT":0},{"OBJECT_NAME":"COSMOS 2251 DEB","OBJECT_ID":"1993-036BEL","EPOCH":"2026-02-23T12:43:37.182144","MEAN_MOTION":14.76968215,"ECCENTRICITY":0.0065484,"INCLINATION":74.0161,"RA_OF_ASC_NODE":2.6562,"ARG_OF_PERICENTER":120.9498,"MEAN_ANOMALY":239.8134,"EPHEMERIS_TYPE":0,"CLASSIFICATION_TYPE":"U","NORAD_CAT_ID":36622,"ELEMENT_SET_NO":999,"REV_AT_EPOCH":67824,"BSTAR":0.00062497,"MEAN_MOTION_DOT":4.528e-5,"MEAN_MOTION_DDOT":0}]
